<?xml version="1.0" encoding="UTF-8"?>
<ndm xmlns:xsi="http://www.w3.org/2001/XMLSchema-instance" xsi:noNamespaceSchemaLocation="https://sanaregistry.org/r/ndmxml_unqualified/ndmxml-2.0.0-master-2.0.xsd">
<omm id="CCSDS_OMM_VERS" version="2.0">
<header><CREATION_DATE/><ORIGINATOR/></header><body><segment><metadata><OBJECT_NAME>ORBCOMM FM20</OBJECT_NAME><OBJECT_ID>1998-046D</OBJECT_ID><CENTER_NAME>EARTH</CENTER_NAME><REF_FRAME>TEME</REF_FRAME><TIME_SYSTEM>UTC</TIME_SYSTEM><MEAN_ELEMENT_THEORY>SGP4</MEAN_ELEMENT_THEORY></metadata><data><meanElements><EPOCH>2026-01-28T20:27:16.491744</EPOCH><MEAN_MOTION>14.37795451</MEAN_MOTION><ECCENTRICITY>.00001947</ECCENTRICITY><INCLINATION>44.9926</INCLINATION><RA_OF_ASC_NODE>192.1311</RA_OF_ASC_NODE><ARG_OF_PERICENTER>116.0678</ARG_OF_PERICENTER><MEAN_ANOMALY>244.0190</MEAN_ANOMALY></meanElements><tleParameters><EPHEMERIS_TYPE>0</EPHEMERIS_TYPE><CLASSIFICATION_TYPE>U</CLASSIFICATION_TYPE><NORAD_CAT_ID>25416</NORAD_CAT_ID><ELEMENT_SET_NO>999</ELEMENT_SET_NO><REV_AT_EPOCH>43673</REV_AT_EPOCH><BSTAR>.53991988E-3</BSTAR><MEAN_MOTION_DOT>.1499E-4</MEAN_MOTION_DOT><MEAN_MOTION_DDOT>0</MEAN_MOTION_DDOT></tleParameters></data></segment></body></omm>
<omm id="CCSDS_OMM_VERS" version="2.0">
<header><CREATION_DATE/><ORIGINATOR/></header><body><segment><metadata><OBJECT_NAME>ORBCOMM FM16</OBJECT_NAME><OBJECT_ID>1998-046E</OBJECT_ID><CENTER_NAME>EARTH</CENTER_NAME><REF_FRAME>TEME</REF_FRAME><TIME_SYSTEM>UTC</TIME_SYSTEM><MEAN_ELEMENT_THEORY>SGP4</MEAN_ELEMENT_THEORY></metadata><data><meanElements><EPOCH>2026-01-28T23:35:13.605504</EPOCH><MEAN_MOTION>14.39707021</MEAN_MOTION><ECCENTRICITY>.00031569</ECCENTRICITY><INCLINATION>44.9910</INCLINATION><RA_OF_ASC_NODE>179.9539</RA_OF_ASC_NODE><ARG_OF_PERICENTER>355.7886</ARG_OF_PERICENTER><MEAN_ANOMALY>4.2936</MEAN_ANOMALY></meanElements><tleParameters><EPHEMERIS_TYPE>0</EPHEMERIS_TYPE><CLASSIFICATION_TYPE>U</CLASSIFICATION_TYPE><NORAD_CAT_ID>25417</NORAD_CAT_ID><ELEMENT_SET_NO>999</ELEMENT_SET_NO><REV_AT_EPOCH>43678</REV_AT_EPOCH><BSTAR>.76883274E-3</BSTAR><MEAN_MOTION_DOT>.2288E-4</MEAN_MOTION_DOT><MEAN_MOTION_DDOT>0</MEAN_MOTION_DDOT></tleParameters></data></segment></body></omm>
<omm id="CCSDS_OMM_VERS" version="2.0">
<header><CREATION_DATE/><ORIGINATOR/></header><body><segment><metadata><OBJECT_NAME>ORBCOMM FM15</OBJECT_NAME><OBJECT_ID>1998-046F</OBJECT_ID><CENTER_NAME>EARTH</CENTER_NAME><REF_FRAME>TEME</REF_FRAME><TIME_SYSTEM>UTC</TIME_SYSTEM><MEAN_ELEMENT_THEORY>SGP4</MEAN_ELEMENT_THEORY></metadata><data><meanElements><EPOCH>2026-01-28T19:23:41.507520</EPOCH><MEAN_MOTION>14.39327454</MEAN_MOTION><ECCENTRICITY>.0002946</ECCENTRICITY><INCLINATION>44.9942</INCLINATION><RA_OF_ASC_NODE>186.6227</RA_OF_ASC_NODE><ARG_OF_PERICENTER>356.7640</ARG_OF_PERICENTER><MEAN_ANOMALY>3.3189</MEAN_ANOMALY></meanElements><tleParameters><EPHEMERIS_TYPE>0</EPHEMERIS_TYPE><CLASSIFICATION_TYPE>U</CLASSIFICATION_TYPE><NORAD_CAT_ID>25418</NORAD_CAT_ID><ELEMENT_SET_NO>999</ELEMENT_SET_NO><REV_AT_EPOCH>43674</REV_AT_EPOCH><BSTAR>.6717516E-3</BSTAR><MEAN_MOTION_DOT>.1964E-4</MEAN_MOTION_DOT><MEAN_MOTION_DDOT>0</MEAN_MOTION_DDOT></tleParameters></data></segment></body></omm>
<omm id="CCSDS_OMM_VERS" version="2.0">
<header><CREATION_DATE/><ORIGINATOR/></header><body><segment><metadata><OBJECT_NAME>ORBCOMM FM14</OBJECT_NAME><OBJECT_ID>1998-046G</OBJECT_ID><CENTER_NAME>EARTH</CENTER_NAME><REF_FRAME>TEME</REF_FRAME><TIME_SYSTEM>UTC</TIME_SYSTEM><MEAN_ELEMENT_THEORY>SGP4</MEAN_ELEMENT_THEORY></metadata><data><meanElements><EPOCH>2026-01-28T21:40:36.746112</EPOCH><MEAN_MOTION>14.39757861</MEAN_MOTION><ECCENTRICITY>.00016997</ECCENTRICITY><INCLINATION>44.9929</INCLINATION><RA_OF_ASC_NODE>183.7050</RA_OF_ASC_NODE><ARG_OF_PERICENTER>347.0160</ARG_OF_PERICENTER><MEAN_ANOMALY>13.0645</MEAN_ANOMALY></meanElements><tleParameters><EPHEMERIS_TYPE>0</EPHEMERIS_TYPE><CLASSIFICATION_TYPE>U</CLASSIFICATION_TYPE><NORAD_CAT_ID>25419</NORAD_CAT_ID><ELEMENT_SET_NO>999</ELEMENT_SET_NO><REV_AT_EPOCH>43673</REV_AT_EPOCH><BSTAR>.74764448E-3</BSTAR><MEAN_MOTION_DOT>.2223E-4</MEAN_MOTION_DOT><MEAN_MOTION_DDOT>0</MEAN_MOTION_DDOT></tleParameters></data></segment></body></omm>
<omm id="CCSDS_OMM_VERS" version="2.0">
<header><CREATION_DATE/><ORIGINATOR/></header><body><segment><metadata><OBJECT_NAME>ORBCOMM FM13</OBJECT_NAME><OBJECT_ID>1998-046H</OBJECT_ID><CENTER_NAME>EARTH</CENTER_NAME><REF_FRAME>TEME</REF_FRAME><TIME_SYSTEM>UTC</TIME_SYSTEM><MEAN_ELEMENT_THEORY>SGP4</MEAN_ELEMENT_THEORY></metadata><data><meanElements><EPOCH>2026-01-28T12:43:24.064032</EPOCH><MEAN_MOTION>14.38336663</MEAN_MOTION><ECCENTRICITY>.00040736</ECCENTRICITY><INCLINATION>44.9945</INCLINATION><RA_OF_ASC_NODE>195.7768</RA_OF_ASC_NODE><ARG_OF_PERICENTER>328.2401</ARG_OF_PERICENTER><MEAN_ANOMALY>31.8201</MEAN_ANOMALY></meanElements><tleParameters><EPHEMERIS_TYPE>0</EPHEMERIS_TYPE><CLASSIFICATION_TYPE>U</CLASSIFICATION_TYPE><NORAD_CAT_ID>25420</NORAD_CAT_ID><ELEMENT_SET_NO>999</ELEMENT_SET_NO><REV_AT_EPOCH>43567</REV_AT_EPOCH><BSTAR>.62237331E-3</BSTAR><MEAN_MOTION_DOT>.1771E-4</MEAN_MOTION_DOT><MEAN_MOTION_DDOT>0</MEAN_MOTION_DDOT></tleParameters></data></segment></body></omm>
<omm id="CCSDS_OMM_VERS" version="2.0">
<header><CREATION_DATE/><ORIGINATOR/></header><body><segment><metadata><OBJECT_NAME>ORBCOMM FM21</OBJECT_NAME><OBJECT_ID>1998-053A</OBJECT_ID><CENTER_NAME>EARTH</CENTER_NAME><REF_FRAME>TEME</REF_FRAME><TIME_SYSTEM>UTC</TIME_SYSTEM><MEAN_ELEMENT_THEORY>SGP4</MEAN_ELEMENT_THEORY></metadata><data><meanElements><EPOCH>2026-01-28T00:55:15.327840</EPOCH><MEAN_MOTION>14.37918381</MEAN_MOTION><ECCENTRICITY>.0001976</ECCENTRICITY><INCLINATION>45.0078</INCLINATION><RA_OF_ASC_NODE>284.2449</RA_OF_ASC_NODE><ARG_OF_PERICENTER>309.6752</ARG_OF_PERICENTER><MEAN_ANOMALY>50.3922</MEAN_ANOMALY></meanElements><tleParameters><EPHEMERIS_TYPE>0</EPHEMERIS_TYPE><CLASSIFICATION_TYPE>U</CLASSIFICATION_TYPE><NORAD_CAT_ID>25475</NORAD_CAT_ID><ELEMENT_SET_NO>999</ELEMENT_SET_NO><REV_AT_EPOCH>42960</REV_AT_EPOCH><BSTAR>.48249444E-3</BSTAR><MEAN_MOTION_DOT>.1328E-4</MEAN_MOTION_DOT><MEAN_MOTION_DDOT>0</MEAN_MOTION_DDOT></tleParameters></data></segment></body></omm>
<omm id="CCSDS_OMM_VERS" version="2.0">
<header><CREATION_DATE/><ORIGINATOR/></header><body><segment><metadata><OBJECT_NAME>ORBCOMM FM22</OBJECT_NAME><OBJECT_ID>1998-053B</OBJECT_ID><CENTER_NAME>EARTH</CENTER_NAME><REF_FRAME>TEME</REF_FRAME><TIME_SYSTEM>UTC</TIME_SYSTEM><MEAN_ELEMENT_THEORY>SGP4</MEAN_ELEMENT_THEORY></metadata><data><meanElements><EPOCH>2026-01-28T17:36:49.600224</EPOCH><MEAN_MOTION>14.39128869</MEAN_MOTION><ECCENTRICITY>.00031326</ECCENTRICITY><INCLINATION>45.0064</INCLINATION><RA_OF_ASC_NODE>273.8494</RA_OF_ASC_NODE><ARG_OF_PERICENTER>295.9776</ARG_OF_PERICENTER><MEAN_ANOMALY>64.0750</MEAN_ANOMALY></meanElements><tleParameters><EPHEMERIS_TYPE>0</EPHEMERIS_TYPE><CLASSIFICATION_TYPE>U</CLASSIFICATION_TYPE><NORAD_CAT_ID>25476</NORAD_CAT_ID><ELEMENT_SET_NO>999</ELEMENT_SET_NO><REV_AT_EPOCH>42975</REV_AT_EPOCH><BSTAR>.58421882E-3</BSTAR><MEAN_MOTION_DOT>.1682E-4</MEAN_MOTION_DOT><MEAN_MOTION_DDOT>0</MEAN_MOTION_DDOT></tleParameters></data></segment></body></omm>
<omm id="CCSDS_OMM_VERS" version="2.0">
<header><CREATION_DATE/><ORIGINATOR/></header><body><segment><metadata><OBJECT_NAME>ORBCOMM FM23</OBJECT_NAME><OBJECT_ID>1998-053C</OBJECT_ID><CENTER_NAME>EARTH</CENTER_NAME><REF_FRAME>TEME</REF_FRAME><TIME_SYSTEM>UTC</TIME_SYSTEM><MEAN_ELEMENT_THEORY>SGP4</MEAN_ELEMENT_THEORY></metadata><data><meanElements><EPOCH>2026-01-28T16:48:21.779712</EPOCH><MEAN_MOTION>14.38176180</MEAN_MOTION><ECCENTRICITY>.00026674</ECCENTRICITY><INCLINATION>45.0078</INCLINATION><RA_OF_ASC_NODE>282.8587</RA_OF_ASC_NODE><ARG_OF_PERICENTER>296.7671</ARG_OF_PERICENTER><MEAN_ANOMALY>63.2905</MEAN_ANOMALY></meanElements><tleParameters><EPHEMERIS_TYPE>0</EPHEMERIS_TYPE><CLASSIFICATION_TYPE>U</CLASSIFICATION_TYPE><NORAD_CAT_ID>25477</NORAD_CAT_ID><ELEMENT_SET_NO>999</ELEMENT_SET_NO><REV_AT_EPOCH>42985</REV_AT_EPOCH><BSTAR>.57400711E-3</BSTAR><MEAN_MOTION_DOT>.1616E-4</MEAN_MOTION_DOT><MEAN_MOTION_DDOT>0</MEAN_MOTION_DDOT></tleParameters></data></segment></body></omm>

</ndm>
