ORBCOMM FM20            
1 25416U 98046D   26028.85227421  .00001499  00000+0  53992-3 0  9997
2 25416  44.9926 192.1311 0000194 116.0678 244.0190 14.37795451436734
ORBCOMM FM16            
1 25417U 98046E   26028.98279636  .00002288  00000+0  76883-3 0  9998
2 25417  44.9910 179.9539 0003156 355.7886   4.2936 14.39707021436784
ORBCOMM FM15            
1 25418U 98046F   26028.80811930  .00001964  00000+0  67175-3 0  9993
2 25418  44.9942 186.6227 0002946 356.7640   3.3189 14.39327454436748
ORBCOMM FM14            
1 25419U 98046G   26028.90320308  .00002223  00000+0  74764-3 0  9990
2 25419  44.9929 183.7050 0001699 347.0160  13.0645 14.39757861436733
ORBCOMM FM13            
1 25420U 98046H   26028.53013963  .00001771  00000+0  62237-3 0  9996
2 25420  44.9945 195.7768 0004073 328.2401  31.8201 14.38336663435670
ORBCOMM FM21            
1 25475U 98053A   26028.03837185  .00001328  00000+0  48249-3 0  9994
2 25475  45.0078 284.2449 0001976 309.6752  50.3922 14.37918381429604
ORBCOMM FM22            
1 25476U 98053B   26028.73390741  .00001682  00000+0  58422-3 0  9991
2 25476  45.0064 273.8494 0003132 295.9776  64.0750 14.39128869429756
ORBCOMM FM23            
1 25477U 98053C   26028.70025208  .00001616  00000+0  57401-3 0  9995
2 25477  45.0078 282.8587 0002667 296.7671  63.2905 14.38176180429852
